{"type": "FeatureCollection", "features": [ {"type": "Feature", "properties": {"norad_id": 66778, "name": "TRANSPORTER-15DS", "group": "last-30-days", "lat": -36.82318341428359, "lon": 78.87420174345979, "alt_km": 520.9547187029875, "timestamp": "2025-12-27T18:38:02.203962+00:00", "meta": {"OBJECT_NAME": "TRANSPORTER-15DS", "OBJECT_ID": "2025-276DS", "EPOCH": "2025-12-18T19:26:21.991200", "MEAN_MOTION": 15.16535337, "ECCENTRICITY": 0.00032319, "INCLINATION": 97.4427, "RA_OF_ASC_NODE": 64.4586, "ARG_OF_PERICENTER": 41.3734, "MEAN_ANOMALY": 318.7744, "EPHEMERIS_TYPE": 0, "CLASSIFICATION_TYPE": "U", "NORAD_CAT_ID": 66778, "ELEMENT_SET_NO": 999, "REV_AT_EPOCH": 304, "BSTAR": 0.00025483693, "MEAN_MOTION_DOT": 4.904e-05, "MEAN_MOTION_DDOT": 0}, "tle": {"line1": "1 66778U 25276DS  25352.80997675  .00004904  00000+0  25484-3 0  9996", "line2": "2 66778  97.4427  64.4586 0003231  41.3734 318.7744 15.16535337  3043"}}, "geometry": {"type": "Point", "coordinates": [78.87420174345979, -36.82318341428359]}}, {"type": "Feature", "properties": {"norad_id": 66791, "name": "STARLINK-35867", "group": "last-30-days", "lat": 29.171935595737565, "lon": -54.26640718303881, "alt_km": 440.17860816959274, "timestamp": "2025-12-27T18:38:02.203972+00:00", "meta": {"OBJECT_NAME": "STARLINK-35867", "OBJECT_ID": "2025-278A", "EPOCH": "2025-12-27T12:00:02.000160", "MEAN_MOTION": 15.4069927, "ECCENTRICITY": 0.000133, "INCLINATION": 42.9998, "RA_OF_ASC_NODE": 164.1298, "ARG_OF_PERICENTER": 288.9788, "MEAN_ANOMALY": 110.4876, "EPHEMERIS_TYPE": 0, "CLASSIFICATION_TYPE": "U", "NORAD_CAT_ID": 66791, "ELEMENT_SET_NO": 999, "REV_AT_EPOCH": 533, "BSTAR": 0.0009006, "MEAN_MOTION_DOT": 0.00037501, "MEAN_MOTION_DDOT": 0}, "tle": {"line1": "1 66791U 25278A   25361.50002315  .00037501  00000+0  90060-3 0  9999", "line2": "2 66791  42.9998 164.1298 0001330 288.9788 110.4876 15.40699270  5331"}}, "geometry": {"type": "Point", "coordinates": [-54.26640718303881, 29.171935595737565]}}, {"type": "Feature", "properties": {"norad_id": 66792, "name": "STARLINK-35990", "group": "last-30-days", "lat": -34.84052402996965, "lon": 30.61687626228007, "alt_km": 416.72255317437794, "timestamp": "2025-12-27T18:38:02.203984+00:00", "meta": {"OBJECT_NAME": "STARLINK-35990", "OBJECT_ID": "2025-278B", "EPOCH": "2025-12-27T11:26:00.630816", "MEAN_MOTION": 15.50620774, "ECCENTRICITY": 0.0001575, "INCLINATION": 43.0003, "RA_OF_ASC_NODE": 164.044, "ARG_OF_PERICENTER": 259.7363, "MEAN_ANOMALY": 100.332, "EPHEMERIS_TYPE": 0, "CLASSIFICATION_TYPE": "U", "NORAD_CAT_ID": 66792, "ELEMENT_SET_NO": 999, "REV_AT_EPOCH": 414, "BSTAR": 0.0020391, "MEAN_MOTION_DOT": 0.00121337, "MEAN_MOTION_DDOT": 0}, "tle": {"line1": "1 66792U 25278B   25361.47639619  .00121337  00000+0  20391-2 0  9999", "line2": "2 66792  43.0003 164.0440 0001575 259.7363 100.3320 15.50620774  4149"}}, "geometry": {"type": "Point", "coordinates": [30.61687626228007, -34.84052402996965]}}, {"type": "Feature", "properties": {"norad_id": 66793, "name": "STARLINK-36051", "group": "last-30-days", "lat": -36.53110529692427, "lon": 34.93286679995554, "alt_km": 417.0225562660071, "timestamp": "2025-12-27T18:38:02.203996+00:00", "meta": {"OBJECT_NAME": "STARLINK-36051", "OBJECT_ID": "2025-278C", "EPOCH": "2025-12-27T03:41:14.284320", "MEAN_MOTION": 15.50602721, "ECCENTRICITY": 0.00013715, "INCLINATION": 42.9994, "RA_OF_ASC_NODE": 165.9219, "ARG_OF_PERICENTER": 274.0641, "MEAN_ANOMALY": 86.0062, "EPHEMERIS_TYPE": 0, "CLASSIFICATION_TYPE": "U", "NORAD_CAT_ID": 66793, "ELEMENT_SET_NO": 999, "REV_AT_EPOCH": 409, "BSTAR": 0.0013323569, "MEAN_MOTION_DOT": 0.00078677, "MEAN_MOTION_DDOT": 0}, "tle": {"line1": "1 66793U 25278C   25361.15363755  .00078677  00000+0  13324-2 0  9996", "line2": "2 66793  42.9994 165.9219 0001371 274.0641  86.0062 15.50602721  4093"}}, "geometry": {"type": "Point", "coordinates": [34.93286679995554, -36.53110529692427]}}, {"type": "Feature", "properties": {"norad_id": 66794, "name": "STARLINK-36062", "group": "last-30-days", "lat": -29.612442205780454, "lon": 19.898630155442575, "alt_km": 432.98136565612003, "timestamp": "2025-12-27T18:38:02.204007+00:00", "meta": {"OBJECT_NAME": "STARLINK-36062", "OBJECT_ID": "2025-278D", "EPOCH": "2025-12-27T12:00:02.000160", "MEAN_MOTION": 15.46285977, "ECCENTRICITY": 0.0001414, "INCLINATION": 42.9998, "RA_OF_ASC_NODE": 163.9188, "ARG_OF_PERICENTER": 267.181, "MEAN_ANOMALY": 219.4386, "EPHEMERIS_TYPE": 0, "CLASSIFICATION_TYPE": "U", "NORAD_CAT_ID": 66794, "ELEMENT_SET_NO": 999, "REV_AT_EPOCH": 533, "BSTAR": -0.045489, "MEAN_MOTION_DOT": -0.02042733, "MEAN_MOTION_DDOT": 0}, "tle": {"line1": "1 66794U 25278D   25361.50002315 -.02042733  00000+0 -45489-1 0  9992", "line2": "2 66794  42.9998 163.9188 0001414 267.1810 219.4386 15.46285977  5334"}}, "geometry": {"type": "Point", "coordinates": [19.898630155442575, -29.612442205780454]}}, {"type": "Feature", "properties": {"norad_id": 66795, "name": "STARLINK-36047", "group": "last-30-days", "lat": -2.8481774474364414, "lon": -14.523907590666388, "alt_km": 444.00246788393815, "timestamp": "2025-12-27T18:38:02.204017+00:00", "meta": {"OBJECT_NAME": "STARLINK-36047", "OBJECT_ID": "2025-278E", "EPOCH": "2025-12-27T12:00:02.000160", "MEAN_MOTION": 15.4067082, "ECCENTRICITY": 0.0001453, "INCLINATION": 42.9998, "RA_OF_ASC_NODE": 164.0087, "ARG_OF_PERICENTER": 260.1949, "MEAN_ANOMALY": 189.1032, "EPHEMERIS_TYPE": 0, "CLASSIFICATION_TYPE": "U", "NORAD_CAT_ID": 66795, "ELEMENT_SET_NO": 999, "REV_AT_EPOCH": 523, "BSTAR": 0.00085782, "MEAN_MOTION_DOT": 0.00035662, "MEAN_MOTION_DDOT": 0}, "tle": {"line1": "1 66795U 25278E   25361.50002315  .00035662  00000+0  85782-3 0  9994", "line2": "2 66795  42.9998 164.0087 0001453 260.1949 189.1032 15.40670820  5233"}}, "geometry": {"type": "Point", "coordinates": [-14.523907590666388, -2.8481774474364414]}}, {"type": "Feature", "properties": {"norad_id": 66796, "name": "STARLINK-35964", "group": "last-30-days", "lat": 17.36288733502221, "lon": -40.72129084706923, "alt_km": 324.68729413553956, "timestamp": "2025-12-27T18:38:02.204027+00:00", "meta": {"OBJECT_NAME": "STARLINK-35964", "OBJECT_ID": "2025-278F", "EPOCH": "2025-12-27T11:55:18.120864", "MEAN_MOTION": 15.81029346, "ECCENTRICITY": 0.0001436, "INCLINATION": 42.9908, "RA_OF_ASC_NODE": 160.6037, "ARG_OF_PERICENTER": 274.34, "MEAN_ANOMALY": 85.7307, "EPHEMERIS_TYPE": 0, "CLASSIFICATION_TYPE": "U", "NORAD_CAT_ID": 66796, "ELEMENT_SET_NO": 999, "REV_AT_EPOCH": 418, "BSTAR": 0.001852, "MEAN_MOTION_DOT": 0.00389248, "MEAN_MOTION_DDOT": 0}, "tle": {"line1": "1 66796U 25278F   25361.49673751  .00389248  00000+0  18520-2 0  9998", "line2": "2 66796  42.9908 160.6037 0001436 274.3400  85.7307 15.81029346  4187"}}, "geometry": {"type": "Point", "coordinates": [-40.72129084706923, 17.36288733502221]}}, {"type": "Feature", "properties": {"norad_id": 66797, "name": "STARLINK-36099", "group": "last-30-days", "lat": -38.691892821100616, "lon": 41.52123900897733, "alt_km": 416.5832199807437, "timestamp": "2025-12-27T18:38:02.204037+00:00", "meta": {"OBJECT_NAME": "STARLINK-36099", "OBJECT_ID": "2025-278G", "EPOCH": "2025-12-27T11:23:32.440128", "MEAN_MOTION": 15.50609361, "ECCENTRICITY": 0.000206, "INCLINATION": 43.0008, "RA_OF_ASC_NODE": 164.0295, "ARG_OF_PERICENTER": 262.2526, "MEAN_ANOMALY": 97.81, "EPHEMERIS_TYPE": 0, "CLASSIFICATION_TYPE": "U", "NORAD_CAT_ID": 66797, "ELEMENT_SET_NO": 999, "REV_AT_EPOCH": 414, "BSTAR": 0.0020829, "MEAN_MOTION_DOT": 0.0012394, "MEAN_MOTION_DDOT": 0}, "tle": {"line1": "1 66797U 25278G   25361.47468102  .00123940  00000+0  20829-2 0  9999", "line2": "2 66797  43.0008 164.0295 0002060 262.2526  97.8100 15.50609361  4142"}}, "geometry": {"type": "Point", "coordinates": [41.52123900897733, -38.691892821100616]}}, {"type": "Feature", "properties": {"norad_id": 66798, "name": "STARLINK-36041", "group": "last-30-days", "lat": -39.33846035701181, "lon": 43.84857736951485, "alt_km": 416.73207217295567, "timestamp": "2025-12-27T18:38:02.204047+00:00", "meta": {"OBJECT_NAME": "STARLINK-36041", "OBJECT_ID": "2025-278H", "EPOCH": "2025-12-27T11:23:02.811840", "MEAN_MOTION": 15.50615796, "ECCENTRICITY": 0.0001875, "INCLINATION": 42.9998, "RA_OF_ASC_NODE": 164.0266, "ARG_OF_PERICENTER": 267.9366, "MEAN_ANOMALY": 92.128, "EPHEMERIS_TYPE": 0, "CLASSIFICATION_TYPE": "U", "NORAD_CAT_ID": 66798, "ELEMENT_SET_NO": 999, "REV_AT_EPOCH": 414, "BSTAR": 0.0021697, "MEAN_MOTION_DOT": 0.00129239, "MEAN_MOTION_DDOT": 0}, "tle": {"line1": "1 66798U 25278H   25361.47433810  .00129239  00000+0  21697-2 0  9999", "line2": "2 66798  42.9998 164.0266 0001875 267.9366  92.1280 15.50615796  4140"}}, "geometry": {"type": "Point", "coordinates": [43.84857736951485, -39.33846035701181]}}, {"type": "Feature", "properties": {"norad_id": 66799, "name": "STARLINK-36044", "group": "last-30-days", "lat": -39.95773258164564, "lon": 46.298095663698646, "alt_km": 417.43666273403505, "timestamp": "2025-12-27T18:38:02.204059+00:00", "meta": {"OBJECT_NAME": "STARLINK-36044", "OBJECT_ID": "2025-278J", "EPOCH": "2025-12-27T03:38:46.280256", "MEAN_MOTION": 15.5060334, "ECCENTRICITY": 0.00010255, "INCLINATION": 42.9995, "RA_OF_ASC_NODE": 165.9075, "ARG_OF_PERICENTER": 293.0188, "MEAN_ANOMALY": 67.0564, "EPHEMERIS_TYPE": 0, "CLASSIFICATION_TYPE": "U", "NORAD_CAT_ID": 66799, "ELEMENT_SET_NO": 999, "REV_AT_EPOCH": 409, "BSTAR": 0.0013597497, "MEAN_MOTION_DOT": 0.0008032, "MEAN_MOTION_DDOT": 0}, "tle": {"line1": "1 66799U 25278J   25361.15192454  .00080320  00000+0  13597-2 0  9998", "line2": "2 66799  42.9995 165.9075 0001025 293.0188  67.0564 15.50603340  4097"}}, "geometry": {"type": "Point", "coordinates": [46.298095663698646, -39.95773258164564]}}]}